
# Worst residual: 5.41 km
# MJD 59823.000000 (2022 Sep  1  0:00)
1983-020D = NORAD 20413 = ASTRON booster
1 20413U 83020D   22244.49919926  .00000000  00000-0  00000-0 0 14925
2 20413 071.7740 070.5038 6731678 002.6535 279.7010 00.24757010    02

# Worst residual: 25.84 km
# MJD 59824.000000 (2022 Sep  2  0:00)
1983-020D = NORAD 20413 = ASTRON booster
1 20413U 83020D   22245.49919926  .00000000  00000-0  00000-0 0 14926
2 20413 071.7997 070.5183 6737466 002.6742 008.8090 00.24697513    08

# Worst residual: 10.58 km
# MJD 59825.000000 (2022 Sep  3  0:00)
1983-020D = NORAD 20413 = ASTRON booster
1 20413U 83020D   22246.49919926  .00000000  00000-0  00000-0 0 14927
2 20413 071.8046 070.5144 6724425 002.7262 097.8871 00.24729325    02

# Worst residual: 16.16 km
# MJD 59826.000000 (2022 Sep  4  0:00)
1983-020D = NORAD 20413 = ASTRON booster
1 20413U 83020D   22247.49919926  .00000000  00000-0  00000-0 0 14928
2 20413 071.8294 070.5063 6705106 002.7825 186.8446 00.24699450    09

# Worst residual: 23.16 km
# MJD 59827.000000 (2022 Sep  5  0:00)
1983-020D = NORAD 20413 = ASTRON booster
1 20413U 83020D   22248.49919926  .00000000  00000-0  00000-0 0 14929
2 20413 071.8009 070.4851 6683406 002.8957 275.2490 00.24697963    01

# Worst residual: 15.79 km
# MJD 59828.000000 (2022 Sep  6  0:00)
1983-020D = NORAD 20413 = ASTRON booster
1 20413U 83020D   22249.49919926  .00000000  00000-0  00000-0 0 14920
2 20413 071.8035 070.4626 6674213 002.9380 004.0651 00.24730910    04

# Worst residual: 7.07 km
# MJD 59829.000000 (2022 Sep  7  0:00)
1983-020D = NORAD 20413 = ASTRON booster
1 20413U 83020D   22250.49919926  .00000000  00000-0  00000-0 0 14922
2 20413 071.8303 070.4587 6672961 002.9314 093.0648 00.24731253    08

# Worst residual: 5.16 km
# MJD 59830.000000 (2022 Sep  8  0:00)
1983-020D = NORAD 20413 = ASTRON booster
1 20413U 83020D   22251.49919926  .00000000  00000-0  00000-0 0 14923
2 20413 071.8961 070.4426 6672920 002.9103 182.2262 00.24750418    08

# Worst residual: 9.66 km
# MJD 59831.000000 (2022 Sep  9  0:00)
1983-020D = NORAD 20413 = ASTRON booster
1 20413U 83020D   22252.49919926  .00000000  00000-0  00000-0 0 14924
2 20413 071.9344 070.4405 6673250 002.9541 271.2792 00.24764676    02

# Worst residual: 37.69 km
# MJD 59832.000000 (2022 Sep 10  0:00)
1983-020D = NORAD 20413 = ASTRON booster
1 20413U 83020D   22253.49919926  .00000000  00000-0  00000-0 0 14925
2 20413 071.9378 070.4263 6659414 002.9411 000.3294 00.24807868    02

# Worst residual: 16.88 km
# MJD 59833.000000 (2022 Sep 11  0:00)
1983-020D = NORAD 20413 = ASTRON booster
1 20413U 83020D   22254.49919926  .00000000  00000-0  00000-0 0 14926
2 20413 071.9660 070.4048 6668837 002.9186 089.3204 00.24752745    06

# Worst residual: 5.32 km
# MJD 59834.000000 (2022 Sep 12  0:00)
1983-020D = NORAD 20413 = ASTRON booster
1 20413U 83020D   22255.49919926  .00000000  00000-0  00000-0 0 14927
2 20413 071.9884 070.3959 6665943 003.0163 178.0988 00.24728076    01

# Worst residual: 1.82 km
# MJD 59835.000000 (2022 Sep 13  0:00)
1983-020D = NORAD 20413 = ASTRON booster
1 20413U 83020D   22256.49919926  .00000000  00000-0  00000-0 0 14928
2 20413 071.9820 070.3841 6664193 003.0583 267.0476 00.24732915    01

# Worst residual: 20.77 km
# MJD 59836.000000 (2022 Sep 14  0:00)
1983-020D = NORAD 20413 = ASTRON booster
1 20413U 83020D   22257.49919926  .00000000  00000-0  00000-0 0 14929
2 20413 071.9981 070.3854 6666562 003.0716 356.0860 00.24696975    04

# Worst residual: 8.17 km
# MJD 59837.000000 (2022 Sep 15  0:00)
1983-020D = NORAD 20413 = ASTRON booster
1 20413U 83020D   22258.49919926  .00000000  00000-0  00000-0 0 14920
2 20413 071.9987 070.3809 6658945 003.1270 085.0265 00.24707185    06

# Worst residual: 3.97 km
# MJD 59838.000000 (2022 Sep 16  0:00)
1983-020D = NORAD 20413 = ASTRON booster
1 20413U 83020D   22259.49919926  .00000000  00000-0  00000-0 0 14921
2 20413 071.9897 070.3791 6658764 003.1056 174.0831 00.24726682    08

# Worst residual: 0.91 km
# MJD 59839.000000 (2022 Sep 17  0:00)
1983-020D = NORAD 20413 = ASTRON booster
1 20413U 83020D   22260.49919926  .00000000  00000-0  00000-0 0 14923
2 20413 071.9972 070.3714 6659220 003.1341 263.0877 00.24734772    00

# Worst residual: 17.13 km
# MJD 59840.000000 (2022 Sep 18  0:00)
1983-020D = NORAD 20413 = ASTRON booster
1 20413U 83020D   22261.49919926  .00000000  00000-0  00000-0 0 14924
2 20413 072.0220 070.3738 6659973 003.1244 352.1303 00.24693096    08

# Worst residual: 14.05 km
# MJD 59841.000000 (2022 Sep 19  0:00)
1983-020D = NORAD 20413 = ASTRON booster
1 20413U 83020D   22262.49919926  .00000000  00000-0  00000-0 0 14925
2 20413 072.0328 070.3788 6651431 003.1900 081.0539 00.24699297    00

# Worst residual: 2.95 km
# MJD 59842.000000 (2022 Sep 20  0:00)
1983-020D = NORAD 20413 = ASTRON booster
1 20413U 83020D   22263.49919926  .00000000  00000-0  00000-0 0 14926
2 20413 072.0520 070.3717 6649965 003.1495 170.1743 00.24726761    08

# Worst residual: 7.37 km
# MJD 59843.000000 (2022 Sep 21  0:00)
1983-020D = NORAD 20413 = ASTRON booster
1 20413U 83020D   22264.49919926  .00000000  00000-0  00000-0 0 14927
2 20413 072.0842 070.3685 6649619 003.1957 259.1119 00.24738883    01

# Worst residual: 21.43 km
# MJD 59844.000000 (2022 Sep 22  0:00)
1983-020D = NORAD 20413 = ASTRON booster
1 20413U 83020D   22265.49919926  .00000000  00000-0  00000-0 0 14928
2 20413 072.0991 070.3635 6639307 003.2157 348.0566 00.24769464    00

# Worst residual: 8.06 km
# MJD 59845.000000 (2022 Sep 23  0:00)
1983-020D = NORAD 20413 = ASTRON booster
1 20413U 83020D   22266.49919926  .00000000  00000-0  00000-0 0 14929
2 20413 072.1189 070.3564 6641320 003.1763 077.1243 00.24756601    02

# Worst residual: 2.72 km
# MJD 59846.000000 (2022 Sep 24  0:00)
1983-020D = NORAD 20413 = ASTRON booster
1 20413U 83020D   22267.49919926  .00000000  00000-0  00000-0 0 14920
2 20413 072.1269 070.3510 6636813 003.2291 166.1117 00.24742899    03

# Worst residual: 3.62 km
# MJD 59847.000000 (2022 Sep 25  0:00)
1983-020D = NORAD 20413 = ASTRON booster
1 20413U 83020D   22268.49919926  .00000000  00000-0  00000-0 0 14921
2 20413 072.0998 070.3355 6632808 003.2521 255.1565 00.24740330    08

# Worst residual: 21.60 km
# MJD 59848.000000 (2022 Sep 26  0:00)
1983-020D = NORAD 20413 = ASTRON booster
1 20413U 83020D   22269.49919926  .00000000  00000-0  00000-0 0 14922
2 20413 072.1001 070.3254 6626536 003.2618 344.1596 00.24746364    06

# Worst residual: 10.74 km
# MJD 59849.000000 (2022 Sep 27  0:00)
1983-020D = NORAD 20413 = ASTRON booster
1 20413U 83020D   22270.49919926  .00000000  00000-0  00000-0 0 14924
2 20413 072.1027 070.2967 6626633 003.2363 073.1834 00.24743835    03
